H1 CPF 01  gfz 2021 01 05 01  5051 tandemx   
H2 1003001  6202 36605    2021 01 05 00 59 42 2021 01 10 00 00 42   120 1 1  0 0 0
H9
10 0 59219  20142.000000  0   -6843277.746   -786065.435   -132227.132
10 0 59219  20262.000000  0   -6818287.040   -604211.470    771423.222
10 0 59219  20382.000000  0   -6670834.746   -413303.111   1661489.404
10 0 59219  20502.000000  0   -6403359.611   -218798.190   2522293.115
10 0 59219  20622.000000  0   -6020517.635    -26157.702   3338672.170
10 0 59219  20742.000000  0   -5529094.797    159289.864   4096255.220
10 0 59219  20862.000000  0   -4937877.442    332479.243   4781719.269
10 0 59219  20982.000000  0   -4257484.622    488731.192   5383024.747
10 0 59219  21102.000000  0   -3500167.881    623865.122   5889624.711
10 0 59219  21222.000000  0   -2679581.750    734298.081   6292646.412
10 0 59219  21342.000000  0   -1810530.391    817128.202   6585041.474
10 0 59219  21462.000000  0    -908694.915    870202.334   6761703.421
10 0 59219  21582.000000  0       9651.884    892165.354   6819550.142
10 0 59219  21702.000000  0     927938.664    882490.603   6757573.681
10 0 59219  21822.000000  0    1829593.297    841491.574   6576856.717
10 0 59219  21942.000000  0    2698340.841    770314.315   6280554.990
10 0 59219  22062.000000  0    3518497.560    670910.458   5873846.459
10 0 59219  22182.000000  0    4275256.796    545991.481   5363845.780
10 0 59219  22302.000000  0    4954960.167    398964.806   4759485.818
10 0 59219  22422.000000  0    5545351.059    233852.050   4071367.735
10 0 59219  22542.000000  0    6035805.635     55192.863   3311579.130
10 0 59219  22662.000000  0    6417534.645   -132064.100   2493482.463
10 0 59219  22782.000000  0    6683749.912   -322682.232   1631477.832
10 0 59219  22902.000000  0    6829793.387   -511266.850    740745.942
10 0 59219  23022.000000  0    6853225.074   -692398.635   -163026.068
10 0 59219  23142.000000  0    6753866.116   -860769.425  -1063930.392
10 0 59219  23262.000000  0    6533794.916  -1011316.138  -1946127.465
10 0 59219  23382.000000  0    6197298.257  -1139349.041  -2794132.379
10 0 59219  23502.000000  0    5750778.509  -1240671.448  -3593091.773
10 0 59219  23622.000000  0    5202620.410  -1311687.626  -4329045.971
10 0 59219  23742.000000  0    4563021.395  -1349496.081  -4989170.888
10 0 59219  23862.000000  0    3843790.903  -1351967.128  -5561996.180
10 0 59219  23982.000000  0    3058122.447  -1317803.488  -6037596.252
10 0 59219  24102.000000  0    2220345.118  -1246581.801  -6407751.043
10 0 59219  24222.000000  0    1345659.979  -1138774.201  -6666077.150
10 0 59219  24342.000000  0     449865.062   -995751.526  -6808127.208
10 0 59219  24462.000000  0    -450925.899   -819767.480  -6831458.292
10 0 59219  24582.000000  0   -1340566.769   -613923.627  -6735668.894
10 0 59219  24702.000000  0   -2203161.901   -382115.921  -6522405.442
10 0 59219  24822.000000  0   -3023343.733   -128963.277  -6195335.855
10 0 59219  24942.000000  0   -3786540.389    140280.301  -5760093.501
10 0 59219  25062.000000  0   -4479233.621    419829.655  -5224191.110
10 0 59219  25182.000000  0   -5089200.231    703486.109  -4596902.007
10 0 59219  25302.000000  0   -5605734.444    984767.700  -3889112.324
10 0 59219  25422.000000  0   -6019846.103   1257050.487  -3113141.663
10 0 59219  25542.000000  0   -6324428.831   1513716.671  -2282535.407
10 0 59219  25662.000000  0   -6514394.675   1748306.237  -1411831.692
10 0 59219  25782.000000  0   -6586771.642   1954669.512   -516306.246
10 0 59219  25902.000000  0   -6540759.496   2127115.571    388301.102
10 0 59219  26022.000000  0   -6377741.383   2260552.838   1286070.402
10 0 59219  26142.000000  0   -6101252.015   2350619.315   2161190.151
10 0 59219  26262.000000  0   -5716901.901   2393798.180   2998245.061
10 0 59219  26382.000000  0   -5232260.105   2387515.069   3782495.741
10 0 59219  26502.000000  0   -4656697.907   2330214.617   4500144.191
10 0 59219  26622.000000  0   -4001198.855   2221415.327   5138578.393
10 0 59219  26742.000000  0   -3278141.160   2061741.621   5686593.098
10 0 59219  26862.000000  0   -2501056.344   1852932.984   6134584.452
10 0 59219  26982.000000  0   -1684368.320   1597828.896   6474713.780
10 0 59219  27102.000000  0    -843120.303   1300330.269   6701038.232
10 0 59219  27222.000000  0       7304.231    965338.909   6809607.247
10 0 59219  27342.000000  0     851462.213    598676.026   6798526.867
10 0 59219  27462.000000  0    1674130.313    206981.107   6667990.510
10 0 59219  27582.000000  0    2460578.156   -202407.503   6420276.135
10 0 59219  27702.000000  0    3196831.951   -621589.311   6059710.234
10 0 59219  27822.000000  0    3869925.091  -1042252.640   5592597.082
10 0 59219  27942.000000  0    4468130.472  -1455838.261   5027114.006
10 0 59219  28062.000000  0    4981170.024  -1853712.566   4373174.171
10 0 59219  28182.000000  0    5400399.537  -2227346.393   3642258.321
10 0 59219  28302.000000  0    5718963.630  -2568496.958   2847215.283
10 0 59219  28422.000000  0    5931915.040  -2869388.117   2002035.021
10 0 59219  28542.000000  0    6036297.205  -3122884.198   1121600.052
10 0 59219  28662.000000  0    6031188.441  -3322654.293    221417.289
10 0 59219  28782.000000  0    5917703.557  -3463320.926   -682663.132
10 0 59219  28902.000000  0    5698955.377  -3540590.641  -1574736.464
10 0 59219  29022.000000  0    5379973.852  -3551361.220  -2439132.002
10 0 59219  29142.000000  0    4967588.695  -3493805.009  -3260694.207
10 0 59219  29262.000000  0    4470277.508  -3367425.808  -4025052.264
10 0 59219  29382.000000  0    3897983.778  -3173088.619  -4718871.400
10 0 59219  29502.000000  0    3261909.510  -2913020.934  -5330081.899
10 0 59219  29622.000000  0    2574288.998  -2590786.710  -5848080.549
10 0 59219  29742.000000  0    1848150.339  -2211236.045  -6263904.013
10 0 59219  29862.000000  0    1097067.439  -1780429.954  -6570374.669
10 0 59219  29982.000000  0     334906.364  -1305540.473  -6762213.827
10 0 59219  30102.000000  0    -424427.151   -794730.991  -6836122.418
10 0 59219  30222.000000  0   -1167235.591   -257017.938  -6790830.732
10 0 59219  30342.000000  0   -1880270.998    297884.701  -6627117.750
10 0 59219  30462.000000  0   -2550965.711    859736.371  -6347798.388
10 0 59219  30582.000000  0   -3167648.919   1417953.769  -5957680.482
10 0 59219  30702.000000  0   -3719747.574   1961805.322  -5463491.702
10 0 59219  30822.000000  0   -4197970.144   2480614.140  -4873775.599
10 0 59219  30942.000000  0   -4594468.152   2963966.497  -4198754.636
10 0 59219  31062.000000  0   -4902971.283   3401920.358  -3450162.762
10 0 59219  31182.000000  0   -5118894.780   3785211.090  -2641050.695
10 0 59219  31302.000000  0   -5239415.443   4105449.678  -1785563.115
10 0 59219  31422.000000  0   -5263514.127   4355307.696   -898693.017
10 0 59219  31542.000000  0   -5191983.143   4528684.945      3983.861
10 0 59219  31662.000000  0   -5027396.919   4620855.288    906588.931
10 0 59219  31782.000000  0   -4774045.653   4628584.727   1793229.482
10 0 59219  31902.000000  0   -4437833.680   4550219.219   2648287.943
10 0 59219  32022.000000  0   -4026145.010   4385740.907   3456705.232
10 0 59219  32142.000000  0   -3547680.435   4136790.669   4204252.339
10 0 59219  32262.000000  0   -3012271.109   3806656.735   4877784.503
10 0 59219  32382.000000  0   -2430672.487   3400230.054   5465473.972
10 0 59219  32502.000000  0   -1814343.371   2923927.518   5957015.900
10 0 59219  32622.000000  0   -1175215.740   2385585.346   6343804.639
10 0 59219  32742.000000  0    -525460.822   1794324.709   6619077.204
10 0 59219  32862.000000  0     122742.191   1160394.335   6778025.026
10 0 59219  32982.000000  0     757434.446    494990.912   6817873.212
10 0 59219  33102.000000  0    1367097.168   -189938.490   6737925.320
10 0 59219  33222.000000  0    1940859.670   -881910.095   6539575.541
10 0 59219  33342.000000  0    2468692.843  -1568130.502   6226286.143
10 0 59219  33462.000000  0    2941585.651  -2235732.524   5803531.868
10 0 59219  33582.000000  0    3351701.843  -2872017.538   5278709.541
10 0 59219  33702.000000  0    3692513.137  -3464698.963   4661014.640
10 0 59219  33822.000000  0    3958907.415  -4002143.167   3961285.599
10 0 59219  33942.000000  0    4147269.257  -4473602.775   3191816.900
10 0 59219  34062.000000  0    4255530.437  -4869437.154   2366144.061
10 0 59219  34182.000000  0    4283189.618  -5181314.551   1498803.232
10 0 59219  34302.000000  0    4231299.619  -5402390.445    605070.019
10 0 59219  34422.000000  0    4102422.230  -5527457.037   -299316.661
10 0 59219  34542.000000  0    3900553.606  -5553061.694  -1198439.341
10 0 59219  34662.000000  0    3631019.411  -5477590.240  -2076491.965
10 0 59219  34782.000000  0    3300343.707  -5301311.865  -2918064.863
10 0 59219  34902.000000  0    2916095.866  -5026386.486  -3708420.844
10 0 59219  35022.000000  0    2486717.998  -4656833.937  -4433755.330
10 0 59219  35142.000000  0    2021338.437  -4198466.867  -5081435.323
10 0 59219  35262.000000  0    1529577.356  -3658789.143  -5640212.849
10 0 59219  35382.000000  0    1021348.850  -3046864.564  -6100410.533
10 0 59219  35502.000000  0     506662.349  -2373158.969  -6454078.655
10 0 59219  35622.000000  0      -4572.351  -1649357.399  -6695121.576
10 0 59219  35742.000000  0    -502731.822   -888160.364  -6819392.241
10 0 59219  35862.000000  0    -978654.884   -103063.143  -6824755.575
10 0 59219  35982.000000  0   -1423806.828    691878.406  -6711120.333
10 0 59219  36102.000000  0   -1830428.951   1482292.771  -6480440.152
10 0 59219  36222.000000  0   -2191670.507   2253746.111  -6136683.461
10 0 59219  36342.000000  0   -2501703.215   2991999.957  -5685773.762
10 0 59219  36462.000000  0   -2755815.879   3683271.548  -5135498.042
10 0 59219  36582.000000  0   -2950488.009   4314491.683  -4495384.355
99
